SL-16 R/B
1 19120U 88039B   25215.61249734  .00000112  00000+0  75832-4 0  9994
2 19120  71.0145 169.6516 0023586 310.7934  49.1145 14.19568146927432
COSMOS 1953
1 19210U 88050A   25215.73775651  .00006753  00000+0  27192-3 0  9994
2 19210  82.5100  16.8067 0012705 166.4853 193.6727 15.24615199  4537
SL-8 R/B
1 19257U 88053B   25215.56622463  .00000225  00000+0  81725-4 0  9992
2 19257  74.0479 154.4578 0019520  26.0457 146.1562 14.38746380945223
COSMOS 1975
1 19573U 88093A   25215.73884529  .00006800  00000+0  28215-3 0  9998
2 19573  82.5244 335.6665 0012135 214.9005 145.1437 15.23616153986167
SL-14 R/B
1 19574U 88093B   25215.84570620  .00000375  00000+0  40559-4 0  9992
2 19574  82.5285 246.4732 0021781  42.4127 130.2618 14.85366106968694
SL-16 R/B
1 19650U 88102B   25215.85170393  .00000254  00000+0  15256-3 0  9993
2 19650  70.9973 249.8326 0015089 334.4622  25.5754 14.16109402896053
INTERCOSMOS 24
1 20261U 89080A   25215.80970051  .00000714  00000+0  20090-3 0  9996
2 20261  82.6017 246.0894 1190965  78.3062 294.8959 12.59110727639376
SL-14 R/B
1 20262U 89080C   25215.51251445  .00000127  00000+0  36899-4 0  9997
2 20262  82.5965 313.2943 1230416 323.5028  28.7956 12.50322442632883
DELTA 1 R/B
1 20323U 89089B   25216.19148966  .00000321  00000+0  88331-4 0  9996
2 20323  97.0975  92.9916 0070984  89.6906 271.2426 14.50426386884734
ARIANE 40 R/B
1 20443U 90005H   25215.87450241  .00000238  00000+0  89565-4 0  9992
2 20443  98.3430 277.6178 0011077 135.7186 224.4891 14.39666522861466
DELTA 2 R/B(1)
1 20453U 90008B   25215.51518178  .00029692  00000+0  63483-3 0  9996
2 20453  35.6074 140.9812 0130539  67.3263 294.1211 15.35206795892398
COSMOS 2058
1 20465U 90010A   25215.85896004  .00002608  00000+0  16251-3 0  9995
2 20465  82.4735 261.5773 0007748  11.9820 348.1592 15.09144409909362
SL-14 R/B
1 20466U 90010B   25215.94948734  .00000350  00000+0  39791-4 0  9991
2 20466  82.5029 111.8554 0018534 300.0241  59.9135 14.83297045896202
SL-14 R/B
1 20511U 90018B   25216.09596040  .00000357  00000+0  42062-4 0  9998
2 20511  82.5190  66.4495 0017889  88.4548 271.8715 14.81878084911449
HST
1 20580U 90037B   25215.93273082  .00005501  00000+0  20116-3 0  9996
2 20580  28.4688  81.1723 0001692 258.8868 101.1537 15.25770533739980
SL-16 R/B
1 20625U 90046B   25215.75125643  .00000325  00000+0  19216-3 0  9993
2 20625  70.9993  35.6047 0016222 274.8061  85.1209 14.14971430817566
COSMOS 2084
1 20663U 90055A   25215.82375751  .00003153  00000+0  23529-3 0  9994
2 20663  62.7919 357.6642 0053537 159.5164 200.8099 15.03920440903536
SL-6 R/B(2)
1 20666U 90055D   25215.86512706  .00001432  00000+0  12270-3 0  9993
2 20666  62.7836 273.7798 0019063 206.2348 153.7786 15.02209270904920
SL-8 R/B
1 20775U 90078B   25215.92390644  .00019151  00000+0  62367-3 0  9990
2 20775  82.9061  85.7398 0397559  21.8451 339.9189 14.79720001776999
SL-8 R/B
1 21088U 91006B   25215.62988387  .00000083  00000+0  68074-4 0  9990
2 21088  82.9458 332.2610 0021124 286.8342  84.1626 13.77467407734059
OKEAN-3
1 21397U 91039A   25216.17153252  .00002536  00000+0  18621-3 0  9992
2 21397  82.5172 187.2858 0014353 359.6076   0.5136 15.02995202853422
COSMOS 2151
1 21422U 91042A   25216.21543058  .00001586  00000+0  12848-3 0  9996
2 21422  82.4977 293.2211 0014015  77.0235 283.2552 14.98998808851752
SL-14 R/B
1 21423U 91042B   25215.83389058  .00000327  00000+0  38603-4 0  9992
2 21423  82.4907  64.4560 0015838 234.2617 125.7125 14.81575567820810
ERS-1
1 21574U 91050A   25215.76406203  .00000265  00000+0  99646-4 0  9997
2 21574  98.7930 223.4919 0033032 127.4616 232.9583 14.39225242784381
ARIANE 40 R/B
1 21610U 91050F   25215.91672022  .00000264  00000+0  91968-4 0  9997
2 21610  98.2363 270.9239 0003586  35.7167 324.4263 14.42667698787599
INTERCOSMOS 25
1 21819U 91086A   25215.89926267  .00001252  00000+0  24743-3 0  9991
2 21819  82.6021  81.6183 1489705 226.1690 120.6443 12.11139911470313
SL-8 R/B
1 21876U 92008B   25215.55959365  .00000090  00000+0  77265-4 0  9994
2 21876  82.9241  70.0038 0035347  26.0157 352.8650 13.75939878679420
SL-8 R/B
1 21938U 92020B   25215.53370638  .00000067  00000+0  54127-4 0  9991
2 21938  82.9332 315.7789 0029069 184.1216 186.5704 13.75517825671145
USA 81
1 21949U 92023A   25215.83407541  .00000138  00000+0  43910-4 0  9990
2 21949  85.0045 257.0854 0002259  71.0239 289.1198 14.32257852 63602
COSMOS 2219
1 22219U 92076A   25215.71403008 -.00000275  00000+0 -11964-3 0  9997
2 22219  71.0604 113.7233 0017949 180.9193 179.1900 14.14034363687565
SL-16 R/B
1 22220U 92076B   25216.24477646  .00000255  00000+0  15084-3 0  9990
2 22220  71.0002 286.4045 0010858  61.7710 354.1879 14.16812375691363
COSMOS 2221
1 22236U 92080A   25216.19963441  .00001650  00000+0  14822-3 0  9998
2 22236  82.5059 127.1834 0013891 197.1837 162.8916 14.95033434769337
SL-16 R/B
1 22285U 92093B   25216.14265078  .00000297  00000+0  17643-3 0  9992
2 22285  71.0217 100.9427 0006325 276.2294  83.8108 14.15403959682690
COSMOS 2228
1 22286U 92094A   25215.88422068  .00001614  00000+0  14171-3 0  9995
2 22286  82.5164  85.6438 0017519 319.4814  40.5102 14.95886948743485
SL-16 R/B
1 22566U 93016B   25215.73735688  .00000311  00000+0  18418-3 0  9991
2 22566  71.0092 312.9331 0012212 290.9211  69.0604 14.15263804671335
COSMOS 2242
1 22626U 93024A   25216.17974638  .00001761  00000+0  15708-3 0  9995
2 22626  82.5198 114.5432 0015691 321.9405  38.0707 14.95338997748191
SL-16 R/B
1 22803U 93059B   25215.94200418  .00000044  00000+0  45724-4 0  9997
2 22803  70.9907 110.3004 0017344 189.5528 170.5268 14.17184138648684
ARIANE 40 R/B
1 22830U 93061H   25215.81441225  .00000172  00000+0  79260-4 0  9993
2 22830  98.5241 283.6148 0010287 203.1805 156.8916 14.32685881662900
COSMOS 2278
1 23087U 94023A   25216.18763417  .00000365  00000+0  21574-3 0  9996
2 23087  71.0524 270.1309 0009030 348.2360  11.8550 14.14309219614309
SL-16 R/B
1 23088U 94023B   25215.62760826  .00000299  00000+0  17898-3 0  9996
2 23088  70.9993 168.8219 0005413 268.7236  91.3267 14.14972580615249
SL-16 R/B
1 23343U 94074B   25215.86772264  .00000413  00000+0  62495-4 0  9993
2 23343  97.7369 250.2353 0006057 198.5511 334.2457 14.79086908655046
SL-16 R/B
1 23405U 94077B   25216.11824231  .00000290  00000+0  17301-3 0  9994
2 23405  70.9824  90.2066 0001895 187.4838 172.6257 14.15523474585713
ARIANE 40+ R/B
1 23561U 95021B   25215.95378088  .00000237  00000+0  89946-4 0  9998
2 23561  98.4809 285.0169 0007933  77.7923  95.0282 14.39561737587917
SL-16 R/B
1 23705U 95058B   25216.18508955 -.00000062  00000+0 -75165-5 0  9999
2 23705  71.0213 276.8911 0010225  90.8615 269.3679 14.15457944537377
SL-16 R/B
1 24298U 96051B   25216.17581834 -.00000152  00000+0 -55472-4 0  9995
2 24298  70.7639 275.6086 0013110  97.8539 262.4070 14.12403530491198
ORBVIEW 2 (SEASTAR)
1 24883U 97037A   25216.14038873  .00000299  00000+0  12059-3 0  9990
2 24883  98.8321  10.0381 0002085  11.1276 348.9954 14.35281338477529
SL-16 R/B
1 25400U 98043G   25215.44797612  .00000053  00000+0  41303-4 0  9992
2 25400  98.7895 162.7000 0008820 290.2546  69.7685 14.25981677407889
SL-16 R/B
1 25407U 98045B   25216.16130689 -.00000111  00000+0 -31869-4 0  9999
2 25407  71.0105 279.0185 0007943 340.3868  19.6949 14.16145379396570
ISS (ZARYA)
1 25544U 98067A   25216.09482028  .00008126  00000+0  14851-3 0  9997
2 25544  51.6350  69.6212 0001682 150.1438 209.9647 15.50325727522594
CZ-4B R/B
1 25732U 99025C   25215.89979145  .00000046  00000+0  43307-4 0  9991
2 25732  98.6966 259.9481 0036100 250.4907 282.8632 14.18201348357435
OKEAN-O
1 25860U 99039A   25216.16972552  .00000607  00000+0  87505-4 0  9995
2 25860  97.9800 272.8666 0001082  70.7113 289.4215 14.79868029402307
SL-16 R/B
1 25861U 99039B   25216.15737154  .00000447  00000+0  64125-4 0  9997
2 25861  98.0327 270.1572 0013726 240.2832 119.7015 14.81334686404788
DELTA 2 R/B
1 25876U 99041E   25215.90561351  .00002420  00000+0  42943-3 0  9998
2 25876  51.7613  90.4885 0506861  66.0760 299.2406 14.10912618332270
HELIOS 1B
1 25977U 99064A   25215.51117721  .00001286  00000+0  15154-3 0  9993
2 25977  98.1885 106.3022 0002431  73.4928 286.6553 14.86603288384138
TERRA
1 25994U 99068A   25216.18440434  .00000404  00000+0  92085-4 0  9990
2 25994  97.9949 272.5090 0003251 129.6439 296.8042 14.60751626363447
SL-16 R/B
1 26070U 00006B   25216.19111485  .00000313  00000+0  18352-3 0  9995
2 26070  71.0009 195.1420 0015678 159.7901 200.3846 14.15781576317756
TITAN 4B R/B
1 26474U 00047B   25215.81849765  .00002495  00000+0  16874-3 0  9995
2 26474  67.9904 292.1374 0048122 284.2190  75.3615 15.07456877360052
ENVISAT
1 27386U 02009A   25216.10086924  .00000092  00000+0  43725-4 0  9998
2 27386  98.3366 170.3235 0001260  82.9082 287.9065 14.38933078227950
IDEFIX & ARIANE 42P R/B
1 27422U 02021B   25215.88950661  .00000220  00000+0  10031-3 0  9991
2 27422  98.5609 152.4304 0012964 106.7152 253.5455 14.30819072212873
AQUA
1 27424U 02022A   25216.20443471  .00000865  00000+0  18470-3 0  9997
2 27424  98.3809 175.1695 0000769  95.8250 321.4927 14.61383138237001
CZ-4B R/B
1 27432U 02024C   25215.87817557  .00000019  00000+0  32923-4 0  9991
2 27432  98.9202 264.9497 0049134 281.5600 252.6048 14.14493958198445
MIDORI II (ADEOS-II)
1 27597U 02056A   25215.79294825  .00000246  00000+0  11488-3 0  9990
2 27597  98.7402 168.2359 0000282  38.8507 321.2695 14.29079137179175
H-2A R/B
1 27601U 02056E   25215.81161149  .00000289  00000+0  11582-3 0  9993
2 27601  98.2827 179.9493 0071769  90.9434 308.4137 14.33536925182890
CZ-4B R/B
1 28059U 03049C   25215.84933845  .00000292  00000+0  78940-4 0  9993
2 28059  98.6630 197.5662 0048492 175.1287 185.0390 14.54720610154929
CZ-2C R/B
1 28222U 04012C   25215.57511825  .00017813  00000+0  36109-3 0  9993
2 28222  97.7637 258.2833 0022319  30.3205 329.9329 15.46185884170407
SL-16 R/B
1 28353U 04021B   25215.58841847 -.00000068  00000+0 -10478-4 0  9997
2 28353  71.0022 330.1819 0005095 346.0103  14.0877 14.14550559 91990
